1 27424U 02022A   10034.54786496 +.00000063 +00000-0 +23919-4 0 05535
2 27424 098.2054 338.0326 0001517 102.3830 257.7533 14.57112432412453